[{"OBJECT_NAME":"STARLINK-3907","OBJECT_ID":"2022-049BC","EPOCH":"2026-03-09T07:51:23.747616","MEAN_MOTION":15.08831714,"ECCENTRICITY":0.00012271,"INCLINATION":53.2181,"RA_OF_ASC_NODE":50.5442,"ARG_OF_PERICENTER":84.7519,"MEAN_ANOMALY":275.3613,"EPHEMERIS_TYPE":0,"CLASSIFICATION_TYPE":"U","NORAD_CAT_ID":52501,"ELEMENT_SET_NO":999,"REV_AT_EPOCH":21234,"BSTAR":-2.6907583e-5,"MEAN_MOTION_DOT":-7.16e-6,"MEAN_MOTION_DDOT":0},{"OBJECT_NAME":"SL-16 DEB","OBJECT_ID":"1992-093Q","EPOCH":"2026-03-09T20:54:01.402848","MEAN_MOTION":15.00181451,"ECCENTRICITY":0.00550249,"INCLINATION":71.1124,"RA_OF_ASC_NODE":226.4429,"ARG_OF_PERICENTER":133.8558,"MEAN_ANOMALY":343.0626,"EPHEMERIS_TYPE":0,"CLASSIFICATION_TYPE":"U","NORAD_CAT_ID":22327,"ELEMENT_SET_NO":999,"REV_AT_EPOCH":74843,"BSTAR":0.0011337635,"MEAN_MOTION_DOT":0.00014594,"MEAN_MOTION_DDOT":0}]
